NORAD_CAT_ID,OBJECT_NAME,OBJECT_TYPE,EPOCH,MEAN_MOTION,ECCENTRICITY,INCLINATION,RA_OF_ASC_NODE,ARG_OF_PERICENTER,MEAN_ANOMALY,BSTAR,MEAN_MOTION_DOT,MEAN_MOTION_DDOT,TLE_LINE0,TLE_LINE1,TLE_LINE2,SEMIMAJOR_AXIS,PERIOD,APOGEE,PERIGEE,DECAYED
52096.0,STARLINK-3717,PAYLOAD,2022-04-16 14:00:01,15.73041768,0.0001233,53.2169,3.1911,119.088,316.4388,-0.00011729,-0.00016935,0.0,0 STARLINK-3717,1 52096U 22029J   22106.58334491 -.00016935  00000-0 -11729-3 0  9994,2 52096  53.2169   3.1911 0001233 119.0880 316.4388 15.73041768  3706,6728.346,91.542,351.041,349.38199999999995,0.0
52096.0,STARLINK-3717,PAYLOAD,2022-04-16 20:00:01,15.73023822,0.0001436,53.2169,1.9553,111.8487,300.2394,0.001075,0.00151855,0.0,0 STARLINK-3717,1 52096U 22029J   22106.83334491  .00151855  00000-0  10750-2 0  9993,2 52096  53.2169   1.9553 0001436 111.8487 300.2394 15.73023822  5769,6728.398,91.543,351.22900000000016,349.296,0.0
52096.0,STARLINK-3717,PAYLOAD,2022-04-16 22:00:01,15.7305942,0.000143,53.2166,1.5436,108.9507,55.3833,0.00087352,0.00123039,0.0,0 STARLINK-3717,1 52096U 22029J   22106.91668981  .00123039  00000-0  87352-3 0  9992,2 52096  53.2166   1.5436 0001430 108.9507  55.3833 15.73059420  3707,6728.295999999999,91.541,351.12300000000016,349.199,0.0
52096.0,STARLINK-3717,PAYLOAD,2022-04-17 12:00:00,15.73171704,0.0001455,53.2161,358.6561,115.8737,113.8838,0.00064043,0.0009012,0.0,0 STARLINK-3717,1 52096U 22029J   22107.50001157  .00090120  00000-0  64043-3 0  9990,2 52096  53.2161 358.6561 0001455 115.8737 113.8838 15.73171704  5860,6727.976,91.535,350.82,348.862,0.0
52096.0,STARLINK-3717,PAYLOAD,2022-04-17 14:00:01,15.73173303,0.0001498,53.2159,358.2434,117.8635,224.1256,0.0008085,0.00114272,0.0,0 STARLINK-3717,1 52096U 22029J   22107.58334491  .00114272  00000-0  80850-3 0  9997,2 52096  53.2159 358.2434 0001498 117.8635 224.1256 15.73173303  3706,6727.971,91.535,350.844,348.82800000000015,0.0
52096.0,STARLINK-3717,PAYLOAD,2022-04-17 20:00:01,15.73241186,0.0001455,53.2163,357.0073,115.7629,202.9048,0.00016575,0.00022746,0.0,0 STARLINK-3717,1 52096U 22029J   22107.83334491  .00022746  00000-0  16575-3 0  9992,2 52096  53.2163 357.0073 0001455 115.7629 202.9048 15.73241186  5913,6727.778,91.531,350.622,348.664,0.0
52096.0,STARLINK-3717,PAYLOAD,2022-04-17 22:00:00,15.73244411,0.0001408,53.2161,356.5956,112.9885,317.9236,0.00019729,0.0002721,0.0,0 STARLINK-3717,1 52096U 22029J   22107.91667824  .00027210  00000-0  19729-3 0  9995,2 52096  53.2161 356.5956 0001408 112.9885 317.9236 15.73244411  3699,6727.769,91.531,350.581,348.686,0.0
52096.0,STARLINK-3717,PAYLOAD,2022-04-18 12:00:00,15.73218483,0.0001209,53.2161,353.7073,121.3788,15.2991,-4.1618e-05,-6.461e-05,0.0,0 STARLINK-3717,1 52096U 22029J   22108.50001157 -.00006461  00000-0 -41618-4 0  9992,2 52096  53.2161 353.7073 0001209 121.3788  15.2991 15.73218483  6029,6727.842,91.532,350.521,348.894,0.0
52096.0,STARLINK-3717,PAYLOAD,2022-04-18 14:00:01,15.73191023,0.0001267,53.216,353.2945,121.163,127.7615,0.00035643,0.00049679,0.0,0 STARLINK-3717,1 52096U 22029J   22108.58334491  .00049679  00000-0  35643-3 0  9996,2 52096  53.2160 353.2945 0001267 121.1630 127.7615 15.73191023  3703,6727.920999999999,91.534,350.63800000000015,348.93300000000005,0.0
52096.0,STARLINK-3717,PAYLOAD,2022-04-18 22:00:00,15.73241314,0.0001188,53.2158,351.6467,115.7216,222.1534,-0.00045838,-0.00064571,0.0,0 STARLINK-3717,1 52096U 22029J   22108.91667824 -.00064571  00000-0 -45838-3 0  9999,2 52096  53.2158 351.6467 0001188 115.7216 222.1534 15.73241314  3701,6727.776999999999,91.531,350.44199999999995,348.843,0.0
52096.0,STARLINK-3717,PAYLOAD,2022-04-19 12:00:00,15.731672,0.0001288,53.2152,348.7582,123.7852,279.7705,0.00063304,0.00089044,0.0,0 STARLINK-3717,1 52096U 22029J   22109.50001157  .00089044  00000-0  63304-3 0  9994,2 52096  53.2152 348.7582 0001288 123.7852 279.7705 15.73167200  6180,6727.989000000001,91.535,350.72,348.987,0.0
52096.0,STARLINK-3717,PAYLOAD,2022-04-19 14:00:01,15.73204163,0.0001379,53.2151,348.3456,124.2826,31.4934,0.00019145,0.00026338,0.0,0 STARLINK-3717,1 52096U 22029J   22109.58334491  .00026338  00000-0  19145-3 0  9993,2 52096  53.2151 348.3456 0001379 124.2826  31.4934 15.73204163  3705,6727.8830000000025,91.533,350.676,348.821,0.0
52096.0,STARLINK-3717,PAYLOAD,2022-04-19 20:00:01,15.73225445,0.0001336,53.2154,347.1097,118.7796,13.7058,-0.00032246,-0.00045679,0.0,0 STARLINK-3717,1 52096U 22029J   22109.83334491 -.00045679  00000-0 -32246-3 0  9999,2 52096  53.2154 347.1097 0001336 118.7796  13.7058 15.73225445  6230,6727.823,91.532,350.586,348.789,0.0
52096.0,STARLINK-3717,PAYLOAD,2022-04-20 12:00:00,15.73167981,0.0001177,53.2155,343.8094,125.1817,185.1352,0.00040373,0.00056344,0.0,0 STARLINK-3717,1 52096U 22029J   22110.50001157  .00056344  00000-0  40373-3 0  9994,2 52096  53.2155 343.8094 0001177 125.1817 185.1352 15.73167981  6332,6727.986,91.535,350.64300000000014,349.06,0.0
52096.0,STARLINK-3717,PAYLOAD,2022-04-20 14:00:01,15.73198622,0.0001262,53.2155,343.3968,123.623,298.9132,-9.3889e-07,-7.52e-06,0.0,0 STARLINK-3717,1 52096U 22029J   22110.58334491 -.00000752  00000-0 -93889-6 0  9999,2 52096  53.2155 343.3968 0001262 123.6230 298.9132 15.73198622  3695,6727.899,91.533,350.61300000000006,348.915,0.0
52096.0,STARLINK-3717,PAYLOAD,2022-04-20 22:00:00,15.73176227,0.0001262,53.2152,341.7492,112.5561,38.9286,0.00032155,0.00044702,0.0,0 STARLINK-3717,1 52096U 22029J   22110.91667824  .00044702  00000-0  32155-3 0  9992,2 52096  53.2152 341.7492 0001262 112.5561  38.9286 15.73176227  3688,6727.9630000000025,91.535,350.677,348.97900000000016,0.0
52096.0,STARLINK-3717,PAYLOAD,2022-04-21 04:00:00,15.73224544,0.0001388,53.2153,340.5123,107.5537,20.5837,-0.00023169,-0.00033043,0.0,0 STARLINK-3717,1 52096U 22029J   22111.16667824 -.00033043  00000-0 -23169-3 0  9993,2 52096  53.2153 340.5123 0001388 107.5537  20.5837 15.73224544  6445,6727.825,91.532,350.624,348.756,0.0
52096.0,STARLINK-3717,PAYLOAD,2022-04-21 14:00:01,15.73173259,0.0001482,53.2149,338.4479,122.1868,207.1714,0.00071715,0.00101131,0.0,0 STARLINK-3717,1 52096U 22029J   22111.58334491  .00101131  00000-0  71715-3 0  9992,2 52096  53.2149 338.4479 0001482 122.1868 207.1714 15.73173259  3715,6727.971,91.535,350.833,348.839,0.0
52096.0,STARLINK-3717,PAYLOAD,2022-04-21 22:00:00,15.73244324,0.0001225,53.2151,336.8005,118.5468,299.7637,-0.00027926,-0.00039701,0.0,0 STARLINK-3717,1 52096U 22029J   22111.91667824 -.00039701  00000-0 -27926-3 0  9998,2 52096  53.2151 336.8005 0001225 118.5468 299.7637 15.73244324  3718,6727.769,91.531,350.458,348.81,0.0
52096.0,STARLINK-3717,PAYLOAD,2022-04-22 04:00:01,15.7323406,0.000105,53.2151,335.5632,114.5845,280.5108,0.00014705,0.00020097,0.0,0 STARLINK-3717,1 52096U 22029J   22112.16668981  .00020097  00000-0  14705-3 0  9998,2 52096  53.2151 335.5632 0001050 114.5845 280.5108 15.73234060  6609,6727.7980000000025,91.531,350.369,348.957,0.0
52096.0,STARLINK-3717,PAYLOAD,2022-04-22 12:00:00,15.73218825,0.0001341,53.2152,333.9116,121.3425,2.668,-0.00025323,-0.00036036,0.0,0 STARLINK-3717,1 52096U 22029J   22112.50001157 -.00036036  00000-0 -25323-3 0  9992,2 52096  53.2152 333.9116 0001341 121.3425   2.6680 15.73218825  6656,6727.842,91.532,350.6090000000001,348.80400000000014,0.0
52096.0,STARLINK-3717,PAYLOAD,2022-04-22 14:00:01,15.73224322,0.0001437,53.2154,333.4991,121.2379,115.0057,-0.00042247,-0.00059555,0.0,0 STARLINK-3717,1 52096U 22029J   22112.58334491 -.00059555  00000-0 -42247-3 0  9995,2 52096  53.2154 333.4991 0001437 121.2379 115.0057 15.73224322  3706,6727.826,91.532,350.658,348.724,0.0
52096.0,STARLINK-3717,PAYLOAD,2022-04-23 12:00:00,15.73120205,0.0001441999999999,53.2147,328.963,122.5663,268.1666,0.00078747,0.00110986,0.0,0 STARLINK-3717,1 52096U 22029J   22113.50001157  .00110986  00000-0  78747-3 0  9996,2 52096  53.2147 328.9630 0001442 122.5663 268.1666 15.73120205  6819,6728.123000000001,91.538,350.958,349.017,0.0
52096.0,STARLINK-3717,PAYLOAD,2022-04-23 14:00:01,15.73148838,0.0001471,53.2149,328.5508,123.54,19.4003,0.00063395,0.00089104,0.0,0 STARLINK-3717,1 52096U 22029J   22113.58334491  .00089104  00000-0  63395-3 0  9994,2 52096  53.2149 328.5508 0001471 123.5400  19.4003 15.73148838  3689,6728.041,91.536,350.896,348.916,0.0
52096.0,STARLINK-3717,PAYLOAD,2022-04-24 04:00:00,15.73212471,9.86e-05,53.2148,325.6659,119.2438,89.3455,0.00032414,0.0004513999999999,0.0,0 STARLINK-3717,1 52096U 22029J   22114.16667824  .00045140  00000-0  32414-3 0  9998,2 52096  53.2148 325.6659 0000986 119.2438  89.3455 15.73212471  6917,6727.86,91.532,350.38800000000015,349.061,0.0
52096.0,STARLINK-3717,PAYLOAD,2022-04-24 12:00:02,15.73238882,0.0001211,53.215,324.0143,123.6522,173.9602,-0.00035088,-0.00049655,0.0,0 STARLINK-3717,1 52096U 22029J   22114.50002315 -.00049655  00000-0 -35088-3 0  9991,2 52096  53.2150 324.0143 0001211 123.6522 173.9602 15.73238882  6969,6727.784000000002,91.531,350.464,348.835,0.0
52096.0,STARLINK-3717,PAYLOAD,2022-04-24 14:00:01,15.73235418,0.0001294,53.2152,323.6022,121.4653,288.322,-0.00040723,-0.00057469,0.0,0 STARLINK-3717,1 52096U 22029J   22114.58334491 -.00057469  00000-0 -40723-3 0  9996,2 52096  53.2152 323.6022 0001294 121.4653 288.3220 15.73235418  3690,6727.794,91.531,350.53,348.789,0.0
52096.0,STARLINK-3717,PAYLOAD,2022-04-25 04:00:00,15.73198991,0.0001137,53.2141,320.717,111.4379,3.9862,-0.00024504,-0.00034865,0.0,0 STARLINK-3717,1 52096U 22029J   22115.16667824 -.00034865  00000-0 -24504-3 0  9994,2 52096  53.2141 320.7170 0001137 111.4379   3.9862 15.73198991  7073,6727.898,91.533,350.528,348.99800000000016,0.0
52096.0,STARLINK-3717,PAYLOAD,2022-04-25 14:00:01,15.73147204,0.0001368,53.2145,318.6538,120.6307,195.9295,0.00051992,0.00072817,0.0,0 STARLINK-3717,1 52096U 22029J   22115.58334491  .00072817  00000-0  51992-3 0  9999,2 52096  53.2145 318.6538 0001368 120.6307 195.9295 15.73147204  3710,6728.045999999999,91.536,350.831,348.99,0.0
